TRANSIT 16 [?]          
1 02807U 67048A   23020.51621431  .00000181  00000+0  26727-3 0  9998
2 02807  89.6580  29.0055 0018519 295.6995 177.3433 13.50354279740069
TRANSIT 17 [?]          
1 02965U 67092A   23020.70347991  .00000179  00000+0  24817-3 0  9994
2 02965  89.2333 106.6171 0049248  66.4771  44.7676 13.53065926728430
TRANSIT 18 [?]          
1 03133U 68012A   23020.47539615  .00000190  00000+0  27457-3 0  9991
2 03133  90.0108 271.7268 0074937 354.2112 179.5667 13.51194217426390
NNSS 19 [?]             
1 04507U 70067A   23020.66486334  .00000213  00000+0  28455-3 0  9995
2 04507  89.9320 237.7714 0173988 114.9307 247.0036 13.50873181579876
NNSS O-20 [?]           
1 06909U 73081A   23020.43576280  .00000369  00000+0  37013-3 0  9999
2 06909  89.8224 273.3423 0156781   7.7857 352.5684 13.70746255658737
TRANSAT [?]             
1 10457U 77106A   23020.52289708  .00000121  00000+0  17765-3 0  9998
2 10457  89.6750 115.4714 0024926   5.9272   5.0190 13.48706243224927
NOVA I [?]              
1 12458U 81044A   23020.48917640  .00000092  00000+0  19601-3 0  9993
2 12458  89.8833 105.2640 0015983 135.4376 236.4778 13.23088062 12052
NOVA 3 [?]              
1 15362U 84110A   23020.40655605  .00000109  00000+0  23892-3 0  9995
2 15362  90.1018  69.0626 0031932   7.8085   3.5195 13.22853947847199
OSCAR 30 [?]            
1 15935U 85066A   23021.23025059  .00000149  00000+0  25270-3 0  9994
2 15935  90.1788  81.7181 0168857 183.5791 242.7556 13.35788448823547
OSCAR 24 [?]            
1 15936U 85066B   23020.66471413  .00000156  00000+0  26682-3 0  9996
2 15936  90.1757  73.6120 0169177 191.0021 286.1158 13.35647165825534
POLAR BEAR [?]          
1 17070U 86088A   23021.34225889  .00000182  00000+0  17812-3 0  9996
2 17070  89.5723 227.7451 0040999  67.7796 105.0381 13.74905668814888
OSCAR 27 [?]            
1 18361U 87080A   23020.44119068  .00000154  00000+0  24184-3 0  9993
2 18361  90.3348  41.4847 0104679  13.3974 346.9914 13.44597668733473
OSCAR 29 [?]            
1 18362U 87080B   23020.49052648  .00000123  00000+0  19006-3 0  9992
2 18362  90.3360  41.8361 0107026  33.8303  78.1162 13.44182970733054
OSCAR 23 [?]            
1 19070U 88033A   23021.46266263  .00000078  00000+0  14329-3 0  9998
2 19070  90.3270 343.7054 0188193 237.3660 248.9886 13.27548527682648
OSCAR 32 [?]            
1 19071U 88033B   23020.44516128  .00000091  00000+0  16884-3 0  9997
2 19071  90.3269 343.7637 0186649 227.8750 252.0741 13.27727174682342
NOVA 11 [?]             
1 19223U 88052A   23020.66567934  .00000108  00000+0  23554-3 0  9993
2 19223  89.9757  80.3417 0031887  49.5695 118.7010 13.22766637669992
OSCAR 25 [?]            
1 19419U 88074A   23021.47801979  .00000146  00000+0  23675-3 0  9990
2 19419  90.0057  18.0291 0097028  20.3528 132.4080 13.42327309684958
OSCAR 31 [?]            
1 19420U 88074B   23020.51505742  .00000137  00000+0  22026-3 0  9994
2 19420  90.0068  18.2284 0095107  17.2890 104.0420 13.42333974684665
